{"type": "FeatureCollection", "features": [ {"type": "Feature", "properties": {"norad_id": 29843, "name": "FENGYUN 1C DEB", "group": "fengyun-1c-debris", "lat": -80.94843895163949, "lon": -97.77475305267328, "alt_km": 713.089849844454, "timestamp": "2025-12-02T15:49:07.461197+00:00", "meta": {"OBJECT_NAME": "FENGYUN 1C DEB", "OBJECT_ID": "1999-025EM", "EPOCH": "2025-12-02T03:20:40.273728", "MEAN_MOTION": 14.28542699, "ECCENTRICITY": 0.01921114, "INCLINATION": 99.038, "RA_OF_ASC_NODE": 174.093, "ARG_OF_PERICENTER": 321.5018, "MEAN_ANOMALY": 159.0497, "EPHEMERIS_TYPE": 0, "CLASSIFICATION_TYPE": "U", "NORAD_CAT_ID": 29843, "ELEMENT_SET_NO": 999, "REV_AT_EPOCH": 98130, "BSTAR": 0.00020200671, "MEAN_MOTION_DOT": 5.63e-06, "MEAN_MOTION_DDOT": 0}, "tle": {"line1": "1 29843U 99025EM  25336.13935502  .00000563  00000+0  20201-3 0  9999", "line2": "2 29843  99.0380 174.0930 0192111 321.5018 159.0497 14.28542699981302"}}, "geometry": {"type": "Point", "coordinates": [-97.77475305267328, -80.94843895163949]}}, {"type": "Feature", "properties": {"norad_id": 29844, "name": "FENGYUN 1C DEB", "group": "fengyun-1c-debris", "lat": -11.067374238361992, "lon": 55.931947173752995, "alt_km": 669.9333309085168, "timestamp": "2025-12-02T15:49:07.461207+00:00", "meta": {"OBJECT_NAME": "FENGYUN 1C DEB", "OBJECT_ID": "1999-025EN", "EPOCH": "2025-12-02T06:32:26.072736", "MEAN_MOTION": 14.31939721, "ECCENTRICITY": 0.0167625, "INCLINATION": 98.9365, "RA_OF_ASC_NODE": 237.2975, "ARG_OF_PERICENTER": 197.7119, "MEAN_ANOMALY": 161.8176, "EPHEMERIS_TYPE": 0, "CLASSIFICATION_TYPE": "U", "NORAD_CAT_ID": 29844, "ELEMENT_SET_NO": 999, "REV_AT_EPOCH": 98191, "BSTAR": 0.00057190775, "MEAN_MOTION_DOT": 1.739e-05, "MEAN_MOTION_DDOT": 0}, "tle": {"line1": "1 29844U 99025EN  25336.27252399  .00001739  00000+0  57191-3 0  9995", "line2": "2 29844  98.9365 237.2975 0167625 197.7119 161.8176 14.31939721981914"}}, "geometry": {"type": "Point", "coordinates": [55.931947173752995, -11.067374238361992]}}, {"type": "Feature", "properties": {"norad_id": 29845, "name": "FENGYUN 1C DEB", "group": "fengyun-1c-debris", "lat": -74.43089129158123, "lon": 9.827655033935466, "alt_km": 840.5986369421826, "timestamp": "2025-12-02T15:49:07.461230+00:00", "meta": {"OBJECT_NAME": "FENGYUN 1C DEB", "OBJECT_ID": "1999-025EP", "EPOCH": "2025-12-02T06:10:40.764000", "MEAN_MOTION": 14.26437367, "ECCENTRICITY": 0.00774341, "INCLINATION": 98.5216, "RA_OF_ASC_NODE": 336.8811, "ARG_OF_PERICENTER": 161.7033, "MEAN_ANOMALY": 219.037, "EPHEMERIS_TYPE": 0, "CLASSIFICATION_TYPE": "U", "NORAD_CAT_ID": 29845, "ELEMENT_SET_NO": 999, "REV_AT_EPOCH": 97960, "BSTAR": 0.00072505271, "MEAN_MOTION_DOT": 1.759e-05, "MEAN_MOTION_DDOT": 0}, "tle": {"line1": "1 29845U 99025EP  25336.25741625  .00001759  00000+0  72505-3 0  9997", "line2": "2 29845  98.5216 336.8811 0077434 161.7033 219.0370 14.26437367979603"}}, "geometry": {"type": "Point", "coordinates": [9.827655033935466, -74.43089129158123]}}, {"type": "Feature", "properties": {"norad_id": 29846, "name": "FENGYUN 1C DEB", "group": "fengyun-1c-debris", "lat": -38.786429337238935, "lon": -168.31970354194763, "alt_km": 859.5524016326299, "timestamp": "2025-12-02T15:49:07.461242+00:00", "meta": {"OBJECT_NAME": "FENGYUN 1C DEB", "OBJECT_ID": "1999-025EQ", "EPOCH": "2025-12-02T03:02:20.032800", "MEAN_MOTION": 14.19081287, "ECCENTRICITY": 0.00842914, "INCLINATION": 98.6567, "RA_OF_ASC_NODE": 18.1925, "ARG_OF_PERICENTER": 335.1703, "MEAN_ANOMALY": 46.1233, "EPHEMERIS_TYPE": 0, "CLASSIFICATION_TYPE": "U", "NORAD_CAT_ID": 29846, "ELEMENT_SET_NO": 999, "REV_AT_EPOCH": 97709, "BSTAR": 0.00016144966, "MEAN_MOTION_DOT": 3.06e-06, "MEAN_MOTION_DDOT": 0}, "tle": {"line1": "1 29846U 99025EQ  25336.12662075  .00000306  00000+0  16145-3 0  9990", "line2": "2 29846  98.6567  18.1925 0084291 335.1703  46.1233 14.19081287977096"}}, "geometry": {"type": "Point", "coordinates": [-168.31970354194763, -38.786429337238935]}}, {"type": "Feature", "properties": {"norad_id": 29847, "name": "FENGYUN 1C DEB", "group": "fengyun-1c-debris", "lat": -31.47790382634508, "lon": -21.702208115438417, "alt_km": 898.1348828887312, "timestamp": "2025-12-02T15:49:07.461253+00:00", "meta": {"OBJECT_NAME": "FENGYUN 1C DEB", "OBJECT_ID": "1999-025ER", "EPOCH": "2025-12-01T23:06:29.581632", "MEAN_MOTION": 14.02986585, "ECCENTRICITY": 0.00858404, "INCLINATION": 98.9027, "RA_OF_ASC_NODE": 332.1098, "ARG_OF_PERICENTER": 68.6405, "MEAN_ANOMALY": 345.7733, "EPHEMERIS_TYPE": 0, "CLASSIFICATION_TYPE": "U", "NORAD_CAT_ID": 29847, "ELEMENT_SET_NO": 999, "REV_AT_EPOCH": 96584, "BSTAR": 0.0001187571, "MEAN_MOTION_DOT": 1.48e-06, "MEAN_MOTION_DDOT": 0}, "tle": {"line1": "1 29847U 99025ER  25335.96284238  .00000148  00000+0  11876-3 0  9993", "line2": "2 29847  98.9027 332.1098 0085840  68.6405 345.7733 14.02986585965849"}}, "geometry": {"type": "Point", "coordinates": [-21.702208115438417, -31.47790382634508]}}, {"type": "Feature", "properties": {"norad_id": 29848, "name": "FENGYUN 1C DEB", "group": "fengyun-1c-debris", "lat": -37.864526656298715, "lon": 17.446362227044837, "alt_km": 853.2637345791309, "timestamp": "2025-12-02T15:49:07.461263+00:00", "meta": {"OBJECT_NAME": "FENGYUN 1C DEB", "OBJECT_ID": "1999-025ES", "EPOCH": "2025-12-02T05:14:39.541344", "MEAN_MOTION": 14.20457777, "ECCENTRICITY": 0.01178639, "INCLINATION": 98.2494, "RA_OF_ASC_NODE": 203.5115, "ARG_OF_PERICENTER": 325.957, "MEAN_ANOMALY": 161.7821, "EPHEMERIS_TYPE": 0, "CLASSIFICATION_TYPE": "U", "NORAD_CAT_ID": 29848, "ELEMENT_SET_NO": 999, "REV_AT_EPOCH": 96968, "BSTAR": 0.0018527651, "MEAN_MOTION_DOT": 4.224e-05, "MEAN_MOTION_DDOT": 0}, "tle": {"line1": "1 29848U 99025ES  25336.21851321  .00004224  00000+0  18528-2 0  9995", "line2": "2 29848  98.2494 203.5115 0117863 325.9570 161.7821 14.20457777969681"}}, "geometry": {"type": "Point", "coordinates": [17.446362227044837, -37.864526656298715]}}, {"type": "Feature", "properties": {"norad_id": 29849, "name": "FENGYUN 1C DEB", "group": "fengyun-1c-debris", "lat": -80.73812721970073, "lon": 137.79813303985486, "alt_km": 939.9623895274672, "timestamp": "2025-12-02T15:49:07.461274+00:00", "meta": {"OBJECT_NAME": "FENGYUN 1C DEB", "OBJECT_ID": "1999-025ET", "EPOCH": "2025-12-02T04:24:53.959104", "MEAN_MOTION": 14.04837094, "ECCENTRICITY": 0.00811581, "INCLINATION": 99.0118, "RA_OF_ASC_NODE": 60.6326, "ARG_OF_PERICENTER": 74.2259, "MEAN_ANOMALY": 316.4692, "EPHEMERIS_TYPE": 0, "CLASSIFICATION_TYPE": "U", "NORAD_CAT_ID": 29849, "ELEMENT_SET_NO": 999, "REV_AT_EPOCH": 96222, "BSTAR": 0.0012507964, "MEAN_MOTION_DOT": 2.024e-05, "MEAN_MOTION_DDOT": 0}, "tle": {"line1": "1 29849U 99025ET  25336.18395786  .00002024  00000+0  12508-2 0  9998", "line2": "2 29849  99.0118  60.6326 0081158  74.2259 316.4692 14.04837094962229"}}, "geometry": {"type": "Point", "coordinates": [137.79813303985486, -80.73812721970073]}}, {"type": "Feature", "properties": {"norad_id": 29850, "name": "FENGYUN 1C DEB", "group": "fengyun-1c-debris", "lat": 36.23929252310602, "lon": -101.58329470873412, "alt_km": 876.3858855885392, "timestamp": "2025-12-02T15:49:07.461285+00:00", "meta": {"OBJECT_NAME": "FENGYUN 1C DEB", "OBJECT_ID": "1999-025EU", "EPOCH": "2025-12-02T01:58:31.165824", "MEAN_MOTION": 13.99789407, "ECCENTRICITY": 0.01033081, "INCLINATION": 98.1212, "RA_OF_ASC_NODE": 263.9118, "ARG_OF_PERICENTER": 319.755, "MEAN_ANOMALY": 50.7921, "EPHEMERIS_TYPE": 0, "CLASSIFICATION_TYPE": "U", "NORAD_CAT_ID": 29850, "ELEMENT_SET_NO": 999, "REV_AT_EPOCH": 95871, "BSTAR": 0.0015283455, "MEAN_MOTION_DOT": 2.308e-05, "MEAN_MOTION_DDOT": 0}, "tle": {"line1": "1 29850U 99025EU  25336.08230516  .00002308  00000+0  15283-2 0  9996", "line2": "2 29850  98.1212 263.9118 0103308 319.7550  50.7921 13.99789407958715"}}, "geometry": {"type": "Point", "coordinates": [-101.58329470873412, 36.23929252310602]}}, {"type": "Feature", "properties": {"norad_id": 29851, "name": "FENGYUN 1C DEB", "group": "fengyun-1c-debris", "lat": -28.62333973971924, "lon": -167.90110371632312, "alt_km": 883.0085487330043, "timestamp": "2025-12-02T15:49:07.461295+00:00", "meta": {"OBJECT_NAME": "FENGYUN 1C DEB", "OBJECT_ID": "1999-025EV", "EPOCH": "2025-12-02T02:58:01.789248", "MEAN_MOTION": 13.83585072, "ECCENTRICITY": 0.01418628, "INCLINATION": 99.5856, "RA_OF_ASC_NODE": 16.8447, "ARG_OF_PERICENTER": 255.6467, "MEAN_ANOMALY": 168.6863, "EPHEMERIS_TYPE": 0, "CLASSIFICATION_TYPE": "U", "NORAD_CAT_ID": 29851, "ELEMENT_SET_NO": 999, "REV_AT_EPOCH": 95220, "BSTAR": 0.00038873876, "MEAN_MOTION_DOT": 4.16e-06, "MEAN_MOTION_DDOT": 0}, "tle": {"line1": "1 29851U 99025EV  25336.12363182  .00000416  00000+0  38874-3 0  9998", "line2": "2 29851  99.5856  16.8447 0141862 255.6467 168.6863 13.83585072952204"}}, "geometry": {"type": "Point", "coordinates": [-167.90110371632312, -28.62333973971924]}}, {"type": "Feature", "properties": {"norad_id": 29852, "name": "FENGYUN 1C DEB", "group": "fengyun-1c-debris", "lat": -79.49206183294058, "lon": 48.99844338317505, "alt_km": 887.6257703722968, "timestamp": "2025-12-02T15:49:07.461305+00:00", "meta": {"OBJECT_NAME": "FENGYUN 1C DEB", "OBJECT_ID": "1999-025EW", "EPOCH": "2025-12-02T01:12:09.690624", "MEAN_MOTION": 14.06972666, "ECCENTRICITY": 0.01352211, "INCLINATION": 99.3717, "RA_OF_ASC_NODE": 345.4494, "ARG_OF_PERICENTER": 179.483, "MEAN_ANOMALY": 250.7712, "EPHEMERIS_TYPE": 0, "CLASSIFICATION_TYPE": "U", "NORAD_CAT_ID": 29852, "ELEMENT_SET_NO": 999, "REV_AT_EPOCH": 95834, "BSTAR": 0.0020709989, "MEAN_MOTION_DOT": 3.71e-05, "MEAN_MOTION_DDOT": 0}, "tle": {"line1": "1 29852U 99025EW  25336.05011216  .00003710  00000+0  20710-2 0  9998", "line2": "2 29852  99.3717 345.4494 0135221 179.4830 250.7712 14.06972666958343"}}, "geometry": {"type": "Point", "coordinates": [48.99844338317505, -79.49206183294058]}}]}